ORBCOMM FM115           
1 41186U 15081H   24340.87854288  .00002052  00000+0  44188-3 0  9994
2 41186  46.9972 238.4717 0000984 245.2440 114.8344 14.61763741479480
ORBCOMM FM108           
1 41187U 15081J   24340.90791788  .00002748  00000+0  63475-3 0  9996
2 41187  47.0048 299.3457 0001765 131.0241 229.0797 14.57547652478591
ORBCOMM FM117           
1 41188U 15081K   24340.60044480  .00002911  00000+0  67016-3 0  9991
2 41188  47.0010 299.6287 0002109 150.0330 210.0676 14.57547774478645
ORBCOMM FM116           
1 41189U 15081L   24340.45290159  .00003036  00000+0  69775-3 0  9994
2 41189  47.0020  30.1632 0002992 252.0188 108.0371 14.57527980477388
